ORBCOMM FM37            
1 33064U 08031E   25109.74563751  .00003118  00000+0  44020-3 0  9998
2 33064  48.4389 261.4246 0005092 128.6683   2.0728 14.79523302905390
ORBCOMM FM40            
1 33065U 08031F   25109.74775045  .00003625  00000+0  48192-3 0  9997
2 33065  48.4407 246.4128 0006331 141.9856   0.8168 14.81702034905490
VESSELSAT 1             
1 37840U 11058C   25109.27606782  .00000428  00000+0  88909-4 0  9993
2 37840  19.9613  90.3515 0013456 258.4027 101.4866 14.11339548697976
ORBCOMM FM109           
1 40086U 14040A   25109.87368180  .00001165  00000+0  28731-3 0  9991
2 40086  47.0035 291.6793 0001174  74.1673 285.9342 14.58065783572551
ORBCOMM FM107           
1 40087U 14040B   25109.83639475  .00001323  00000+0  32086-3 0  9990
2 40087  47.0053 292.8407 0001004 347.3205  12.7655 14.58126315572625
ORBCOMM FM106           
1 40088U 14040C   25109.34701373  .00001669  00000+0  31123-3 0  9998
2 40088  47.0578 121.9560 0016285 156.2557 203.9088 14.69277043574829
ORBCOMM FM104           
1 40090U 14040E   25109.89808347  .00000993  00000+0  25832-3 0  9999
2 40090  47.0062 325.4591 0016799 297.7873  62.1309 14.56545182572127
